STARLINK-11729 [DTC]    
1 64073U 25107K   25152.16668981  .00109177  00000+0  45242-3 0  9999
2 64073  43.0064 357.6229 0002594 309.5274  80.2409 15.84731194  2966
STARLINK-11730 [DTC]    
1 64074U 25107L   25152.16668981  .00101075  00000+0  41960-3 0  9992
2 64074  43.0065 357.6138 0002208 293.9739  99.5091 15.84722475  2963
STARLINK-11723 [DTC]    
1 64075U 25107M   25152.16668981  .00067537  00000+0  28190-3 0  9997
2 64075  43.0065 357.6025 0002605 238.7927 159.1841 15.84744861  2910
STARLINK-11715 [DTC]    
1 64076U 25107N   25151.91668981  .00000857  00000+0  59068-5 0  9992
2 64076  43.0066 359.1381 0002365 304.2366 107.5504 15.84759067  2886
STARLINK-34201          
1 64077U 25107P   25151.91668981 -.01034504  00000+0 -53568-2 0  9998
2 64077  43.0063 359.1345 0001903 271.1007 141.6612 15.82695686  2833
STARLINK-34190          
1 64078U 25107Q   25151.91668981 -.01045581  00000+0 -54100-2 0  9999
2 64078  43.0061 359.1191 0001879 269.8441 148.9062 15.82740497  2783
STARLINK-34168          
1 64079U 25107R   25151.91668981 -.01032772  00000+0 -53381-2 0  9998
2 64079  43.0065 359.1308 0001854 271.1834 143.1009 15.82730054  2936
STARLINK-34098          
1 64080U 25107S   25151.91668981 -.01035824  00000+0 -53523-2 0  9999
2 64080  43.0064 359.1254 0001836 270.3693 145.8972 15.82744247  2938
STARLINK-34180          
1 64081U 25107T   25152.16668981 -.01091419  00000+0 -57240-2 0  9990
2 64081  43.0063 357.5766 0001930 269.6917 137.9617 15.82155790  2985
STARLINK-34171          
1 64082U 25107U   25151.91668981 -.01065291  00000+0 -55339-2 0  9999
2 64082  43.0064 359.1052 0001830 271.8163 152.5639 15.82708578  2930
STARLINK-34126          
1 64083U 25107V   25151.91668981 -.01107362  00000+0 -56690-2 0  9997
2 64083  43.0061 359.0857 0001844 272.6123 159.4202 15.82699897  2834
STARLINK-34157          
1 64084U 25107W   25151.91668981 -.01119025  00000+0 -57385-2 0  9999
2 64084  43.0064 359.0787 0001753 271.7586 163.0875 15.82689868  2937
STARLINK-34140          
1 64085U 25107X   25151.91668981 -.01073014  00000+0 -55817-2 0  9995
2 64085  43.0062 359.0981 0001724 269.2760 157.7517 15.82700942  2936
STARLINK-34132          
1 64086U 25107Y   25151.91668981 -.01099839  00000+0 -56262-2 0  9994
2 64086  43.0061 359.0922 0001836 271.7948 157.7385 15.82699971  2674
2025-108A               
1 64087U 25108A   25152.18981687  .00005855  00000+0  33089-3 0  9992
2 64087  97.5126 227.8575 0014878 250.1605 109.8022 15.13387497  1674
2025-108B               
1 64088U 25108B   25152.19293560  .00008609  00000+0  49019-3 0  9990
2 64088  97.5089 227.8487 0014010 243.2020 116.7778 15.12986347  1636
2025-108C               
1 64089U 25108C   25152.19378580  .00006043  00000+0  34655-3 0  9997
2 64089  97.5059 227.8398 0015227 243.9710 115.9953 15.12843000  1633
2025-108D               
1 64090U 25108D   25152.19184818  .00004969  00000+0  28378-3 0  9998
2 64090  97.5059 227.8460 0014052 246.1441 113.8317 15.13097916  1635
2025-108E               
1 64091U 25108E   25152.19268200  .00010074  00000+0  57203-3 0  9990
2 64091  97.5052 227.8442 0014095 243.4338 116.5449 15.13040436  1632
2025-108F               
1 64092U 25108F   25152.19165486  .00010412  00000+0  58870-3 0  9990
2 64092  97.5047 227.8448 0014004 246.0755 113.9009 15.13184043  1631
ZK-1 R/B                
1 64093U 25108G   25152.16282613  .00014621  00000+0  35503-3 0  9994
2 64093  97.4637 228.1302 0105370 340.0883  19.6261 15.35454054  1653
TJS-19 AKM              
1 64094U 25097C   25150.95597927  .00000026  00000+0  00000+0 0  9998
2 64094   3.9701 312.8166 0015006 216.8206 143.1113  0.98834718   146
COSMOS 2588             
1 64095U 25109A   25151.90684776  .00008787  00000+0  29779-3 0  9998
2 64095  72.9729 352.3095 0012074 234.5965 125.4104 15.30654035  1311
STARLINK-34178          
1 64096U 25110A   25152.16668981 -.01322418  00000+0 -63737-2 0  9994
2 64096  53.1552 267.9229 0000634  79.8342 162.0541 15.84664598  2480
STARLINK-34174          
1 64097U 25110B   25151.91668981 -.01375014  00000+0 -64040-2 0  9995
2 64097  53.1550 269.1818 0000533  62.8713 193.3554 15.85482833  2458
STARLINK-34146          
1 64098U 25110C   25152.16668981 -.01343625  00000+0 -64676-2 0  9992
2 64098  53.1551 267.9140 0000638  68.2407 177.8000 15.84737293  2488
STARLINK-34074          
1 64099U 25110D   25151.91668981 -.01405595  00000+0 -65417-2 0  9994
2 64099  53.1548 269.1722 0000532  52.8577 207.9577 15.85564663  2456
STARLINK-34082          
1 64100U 25110E   25151.91668981 -.01411252  00000+0 -65600-2 0  9998
2 64100  53.1549 269.1680 0000589  56.5432 206.3053 15.85601388  2454
STARLINK-34072          
1 64101U 25110F   25152.16668981 -.01386764  00000+0 -66742-2 0  9994
2 64101  53.1551 267.9006 0000546  86.5045 166.0909 15.84836574  2483
STARLINK-34104          
1 64102U 25110G   25152.16668981 -.01388294  00000+0 -66733-2 0  9995
2 64102  53.1549 267.8961 0000604  93.2730 161.3802 15.84864718  2482
STARLINK-34179          
1 64103U 25110H   25152.16668981 -.01407835  00000+0 -67716-2 0  9991
2 64103  53.1551 267.8916 0000590  91.5740 165.3117 15.84895056  2484
STARLINK-34176          
1 64104U 25110J   25152.16668981 -.01415022  00000+0 -68004-2 0  9990
2 64104  53.1549 267.8875 0000546  79.9142 178.9511 15.84929002  2480
STARLINK-33949          
1 64105U 25110K   25152.16668981 -.01459685  00000+0 -68782-2 0  9997
2 64105  53.1549 267.8829 0000577  86.9499 174.1575 15.84954217  2481
STARLINK-33970          
1 64106U 25110L   25152.16668981 -.01469080  00000+0 -69183-2 0  9994
2 64106  53.1549 267.8787 0000634  68.6450 194.4831 15.84982998  2480
STARLINK-33912          
1 64107U 25110M   25152.16668981 -.01476342  00000+0 -69498-2 0  9993
2 64107  53.1546 267.8742 0000590  80.3865 184.9039 15.85004548  2482
STARLINK-34156          
1 64108U 25110N   25152.16668981 -.01484822  00000+0 -69847-2 0  9994
2 64108  53.1547 267.8700 0000550  91.1195 176.0692 15.85035058  2487
STARLINK-34124          
1 64109U 25110P   25152.16668981 -.01500093  00000+0 -70547-2 0  9993
2 64109  53.1546 267.8658 0000668  93.9131 175.2627 15.85066892  2488
STARLINK-34145          
1 64110U 25110Q   25152.16668981 -.01508116  00000+0 -70904-2 0  9996
2 64110  53.1546 267.8617 0000612  90.4159 180.8253 15.85087943  2483
STARLINK-34148          
1 64111U 25110R   25152.16668981 -.01525205  00000+0 -71732-2 0  9995
2 64111  53.1546 267.8572 0000472  82.3736 190.9580 15.85113508  2481
STARLINK-34136          
1 64112U 25110S   25152.16668981 -.01525869  00000+0 -71694-2 0  9999
2 64112  53.1545 267.8527 0000552  91.9915 183.2723 15.85133691  2495
STARLINK-33839          
1 64113U 25110T   25152.16668981 -.01544776  00000+0 -72624-2 0  9992
2 64113  53.1544 267.8486 0000567  76.9515 200.4367 15.85156348  2483
STARLINK-34064          
1 64114U 25110U   25152.16668981 -.01558449  00000+0 -73250-2 0  9991
2 64114  53.1542 267.8445 0000494  85.3250 193.9301 15.85186916  2484
STARLINK-34067          
1 64115U 25110V   25152.16668981 -.01553972  00000+0 -72973-2 0  9999
2 64115  53.1542 267.8404 0000550  92.7087 188.5985 15.85196779  2489
STARLINK-34080          
1 64116U 25110W   25152.16668981 -.01568711  00000+0 -73675-2 0  9997
2 64116  53.1543 267.8362 0000569  86.2487 197.0403 15.85220923  2485
STARLINK-34122          
1 64117U 25110X   25152.16668981 -.01575580  00000+0 -73949-2 0  9994
2 64117  53.1543 267.8321 0000571  85.8231 199.2900 15.85247004  2481
STARLINK-33964          
1 64118U 25110Y   25152.16668981 -.01588205  00000+0 -74566-2 0  9999
2 64118  53.1542 267.8279 0000563  87.4709 199.6921 15.85263691  2489
STARLINK-34160          
1 64119U 25110Z   25152.16668981 -.01587534  00000+0 -74440-2 0  9995
2 64119  53.1544 267.8248 0000561  98.9383 189.9697 15.85288429  2489
STARLINK-34151          
1 64120U 25110AA  25152.16668981 -.01606217  00000+0 -75336-2 0  9992
2 64120  53.1544 267.8207 0000589  92.8961 197.9213 15.85317306  2481
STARLINK-34189          
1 64121U 25110AB  25152.16668981 -.01622252  00000+0 -75997-2 0  9993
2 64121  53.1545 267.8135 0000605  80.9464 213.5185 15.85371416  2483
STARLINK-33991          
1 64122U 25110AC  25152.16668981 -.01618476  00000+0 -75925-2 0  9998
2 64122  53.1547 267.8169 0000542  86.9988 205.8200 15.85336851  2486
SHIJIAN-26 (SJ-26)      
1 64199U 25115A   25151.91302516  .00004932  00000+0  21225-3 0  9996
2 64199  97.4905 227.3230 0009265 258.0264 101.9934 15.23052487   412
CZ-4B DEB               
1 64200U 25115B   25151.93585898  .00026113  00000+0  15164-2 0  9996
2 64200  97.5233 227.2964 0062024 185.9303 174.1200 15.10443916   412
CZ-4B R/B               
1 64201U 25115C   25151.90944892  .00089544  42867-5  54314-3 0  9998
2 64201  97.4333 227.4459 0157247   8.2343 352.1439 15.62184301   405
NAVSTAR 84 (USA 545)    
1 64202U 25116A   25152.03832416 -.00000081  00000+0  00000+0 0  9999
2 64202  55.0153  50.9960 5943771 270.3415  25.9578  4.02875571    52
